ESTCUBE 1               
1 39161U 13021C   21364.79397455  .00000704  00000+0  11824-3 0  9991
2 39161  97.9247  81.3388 0008354 239.5171 120.5202 14.72623438464645
FENGYUN 3C              
1 39260U 13052A   21364.87318318  .00000019  00000+0  30511-4 0  9999
2 39260  98.4759  36.3500 0011898  45.1429 315.0696 14.15891540428061
CASSIOPE                
1 39265U 13055A   21364.88987903  .00006854  00000+0  18529-3 0  9997
2 39265  80.9673  85.5208 0639613  96.2998 271.1388 14.34726803428135
ZACUBE-1 (TSHEPISOSAT)  
1 39417U 13066B   21364.91065594  .00000915  00000+0  11939-3 0  9995
2 39417  97.6157 339.3208 0057088 236.4303 123.1453 14.81752791438164
CINEMA-3 (KHUSAT-2)     
1 39426U 13066L   21364.81013189  .00000607  00000+0  10132-3 0  9999
2 39426  97.7814 307.2999 0105130  56.5004 304.6195 14.69814883434495
TRITON-1                
1 39427U 13066M   21364.84924637  .00000747  00000+0  12480-3 0  9995
2 39427  97.7985 303.2070 0114354  83.5156 277.9055 14.68439883434036
DELFI-N3XT              
1 39428U 13066N   21364.77191373  .00001187  00000+0  19207-3 0  9994
2 39428  97.8014 301.6430 0120491  96.7318 264.7616 14.68328039433775
GOMX-1                  
1 39430U 13066Q   21364.78728365  .00000784  00000+0  14969-3 0  9997
2 39430  97.8156 276.5903 0149173 216.1099 142.9956 14.59796503431689
BRITE-PL1 (LEM)         
1 39431U 13066R   21364.88598075  .00000205  00000+0  53279-4 0  9998
2 39431  97.7215 228.3473 0202670  31.1447 330.1575 14.47206481427980
ICUBE-1                 
1 39432U 13066S   21364.92408059  .00001305  00000+0  13536-3 0  9999
2 39432  97.4689  12.5580 0033089 106.5737 253.9121 14.91184480439581
HUMSAT-D                
1 39433U 13066T   21364.94559777  .00001697  00000+0  16558-3 0  9997
2 39433  97.4582  19.9167 0031790  84.4553 276.0292 14.93301130440068
VELOX-PII               
1 39438U 13066Y   21364.86146139  .00000894  00000+0  12509-3 0  9997
2 39438  97.6695 330.1690 0068662 286.0516  73.3142 14.78416176436096
FIRST-MOVE              
1 39439U 13066Z   21364.92316154  .00001622  00000+0  19904-3 0  9997
2 39439  97.6187 341.2458 0062836 233.1176 126.4269 14.83059479437063
CUBEBUG-2 (LO-74)       
1 39440U 13066AA  21364.86913427  .00001170  00000+0  16715-3 0  9993
2 39440  97.7041 324.8237 0078663 319.2315  40.3025 14.76467215435406
NEE-02 KRYSAOR          
1 39441U 13066AB  21364.87182307  .00000840  00000+0  12501-3 0  9992
2 39441  97.7145 322.0898 0080592 331.6660  28.0178 14.75344252435170
FUNCUBE-1 (AO-73)       
1 39444U 13066AE  21364.90700862  .00001081  00000+0  13680-3 0  9998
2 39444  97.6049 341.7082 0056217 225.4619 134.1997 14.82707018436540
HINCUBE                 
1 39445U 13066AF  21364.93762233  .00001036  00000+0  13192-3 0  9990
2 39445  97.6063 341.5730 0056240 227.4205 132.2257 14.82530171436490
UWE-3                   
1 39446U 13066AG  21364.91047233  .00001011  00000+0  13867-3 0  9997
2 39446  97.6631 331.5741 0067932 279.1284  80.2247 14.79010814435543
AIST-1 (RS-41)          
1 39492U 13078C   21364.76589064  .00000605  00000+0  62880-4 0  9995
2 39492  82.4192  37.9899 0018663 309.0642  50.8911 14.88152448434693
SPROUT                  
1 39770U 14029E   21364.80760588  .00003582  00000+0  38563-3 0  9995
2 39770  97.9309 116.1585 0007424 284.8207  75.2188 14.89100424412551
UNISAT-6                
1 40012U 14033C   21364.49763994  .00000773  00000+0  12063-3 0  9996
2 40012  97.6616 196.5046 0057614 347.4256  12.5513 14.74487081405087
BUGSAT-1 (TITA)         
1 40014U 14033E   21364.95205877  .00000713  00000+0  68749-4 0  9997
2 40014  98.1317 351.6918 0029899 234.1565 125.6877 14.96020792410940
DUCHIFAT-1              
1 40021U 14033M   21364.83203421  .00001518  00000+0  15634-3 0  9993
2 40021  97.9936 307.3495 0011447 233.9730 126.0428 14.91764072409554
NANOSATC-BR1            
1 40024U 14033Q   21364.78563962  .00001764  00000+0  18509-3 0  9996
2 40024  97.9698 301.5012 0010746 240.8107 119.2036 14.90794799408847
QB50P1                  
1 40025U 14033R   21364.77167774  .00001390  00000+0  15100-3 0  9996
2 40025  97.9479 296.1169 0010935 251.2453 108.7578 14.89736940408641
DTUSAT-2                
1 40030U 14033W   21364.76789753  .00001221  00000+0  13484-3 0  9994
2 40030  97.9278 292.0736 0010408 247.2694 112.7423 14.89261428408532
QB50P2                  
1 40032U 14033Y   21364.80353174  .00001218  00000+0  13469-3 0  9994
2 40032  97.9285 292.1195 0010335 248.1129 111.8990 14.89225093408519
POLYITAN-1              
1 40042U 14033AJ  21364.77853553  .00001709  00000+0  18478-3 0  9997
2 40042  97.9578 297.1160 0013197 242.2287 117.7592 14.89606419408531
TIGRISAT                
1 40043U 14033AK  21364.49423520  .00000624  00000+0  98165-4 0  9991
2 40043  97.6573 197.8614 0059278 345.0436  14.9018 14.74673258404729
AISAT                   
1 40054U 14034B   21364.93185271  .00001540  00000+0  21692-3 0  9999
2 40054  98.3403 164.9123 0013527 132.0705 228.1658 14.78783484404569
CANX-4                  
1 40055U 14034C   21364.93095375  .00000432  00000+0  72039-4 0  9996
2 40055  98.3313 151.6616 0014420 169.6103 190.5406 14.75162646403875
CANX-5                  
1 40056U 14034D   21364.93675315  .00000428  00000+0  71420-4 0  9993
2 40056  98.3313 151.6507 0014434 169.8659 190.2843 14.75155765394682
VELOX-I                 
1 40057U 14034E   21364.75630371  .00001562  00000+0  22167-3 0  9990
2 40057  98.3468 165.8410 0011548 145.2629 214.9338 14.78455245404541
METEOR-M 2              
1 40069U 14037A   21364.86003029 -.00000023  00000+0  86763-5 0  9998
2 40069  98.4447  25.2503 0006888  91.4757 268.7199 14.20694074387925
DX1                     
1 40071U 14037C   21364.78292055  .00000552  00000+0  77654-4 0  9995
2 40071  98.4290 219.9063 0009213 132.4158 227.7837 14.81612386404368
UKUBE-1                 
1 40074U 14037F   21364.56974305  .00001412  00000+0  17336-3 0  9995
2 40074  98.4027 231.2308 0005127 105.6689 254.5060 14.84804472405009
FIREBIRD 3              
1 40377U 15003B   21364.48718817  .00010743  00000+0  36791-3 0  9993
2 40377  99.1123 187.3851 0111086 234.9615 124.1156 15.24687915382638
FIREBIRD 4              
1 40378U 15003C   21364.45611790  .00013857  00000+0  47208-3 0  9997
2 40378  99.1128 187.5234 0111113 234.8012 124.2777 15.24755757382632
GRIFEX                  
1 40379U 15003D   21364.93326811  .00006444  00000+0  25092-3 0  9999
2 40379  99.1137 175.6637 0123118 270.6888  88.0236 15.19665627382003
CP10 (EXOCUBE)          
1 40380U 15003E   21364.91480540  .00004355  00000+0  18163-3 0  9999
2 40380  99.1169 169.2344 0129423 292.2916  66.4632 15.17084982381580
DEORBITSAIL             
1 40719U 15032E   21364.66736433  .00001362  00000+0  19686-3 0  9990
2 40719  97.8036 243.4844 0015691 187.5062 172.5917 14.77682627348957
NUDT-PHONESAT           
1 40900U 15049B   21364.91352053  .00013153  00000+0  47034-3 0  9999
2 40900  97.4132  17.9339 0011613 156.3043 288.1984 15.28869696348811
XW-2A                   
1 40903U 15049E   21364.91040362  .00011585  00000+0  22588-3 0  9993
2 40903  97.2105  58.7381 0012315  24.9016  79.2954 15.47595519353152
XW-2C                   
1 40906U 15049H   21364.92112052  .00003620  00000+0  18418-3 0  9991
2 40906  97.4912   4.9504 0013048 220.4239 201.5520 15.17401771347354
XW-2D                   
1 40907U 15049J   21364.93486337  .00003986  00000+0  20013-3 0  9992
2 40907  97.4904   4.8370 0012419 216.1827 204.4329 15.17810902347395
LILACSAT-2              
1 40908U 15049K   21364.95621095  .00001795  00000+0  10001-3 0  9999
2 40908  97.5120   2.4025 0014109 237.4119 180.0874 15.14825061346972
XW-2E                   
1 40909U 15049L   21364.94550789  .00005822  00000+0  26800-3 0  9999
2 40909  97.4675   9.1025 0012169 196.9638 223.4822 15.20640405347789
XW-2F                   
1 40910U 15049M   21364.94791745  .00005745  00000+0  26829-3 0  9995
2 40910  97.4743   8.2052 0013209 198.2011 222.7958 15.20134339347565
XW-2B                   
1 40911U 15049N   21364.94915221  .00003802  00000+0  19155-3 0  9999
2 40911  97.4897   5.4997 0012355 217.1847 204.8884 15.17718268347285
KAITUO 1B               
1 40912U 15049P   21364.93883064  .00006559  00000+0  28269-3 0  9996
2 40912  97.4430  12.5730 0014042 166.7659 255.2345 15.22818412348087
TIANWANG 1A (TW-1A)     
1 40928U 15051D   21364.87533830  .00018082  00000+0  32972-3 0  9992
2 40928  97.0611  25.2814 0006707 299.7562 182.9284 15.49476262352067
LAPAN-A2                
1 40931U 15052B   21364.27242975  .00000984  00000+0  47794-4 0  9999
2 40931   6.0022 295.7775 0014038 296.1009  63.7767 14.76717303338294
LQSAT                   
1 40958U 15057A   21364.76696525  .00000221  00000+0  41573-4 0  9994
2 40958  97.7770  53.3120 0018915 140.6791 219.5783 14.73233282335158
ATHENOXAT 1             
1 41168U 15077C   21364.82898006  .00008798  00000+0  39474-3 0  9998
2 41168  14.9888 256.0333 0011161  30.8464  39.3368 15.17092259334639
GALASSIA                
1 41170U 15077E   21363.00544024  .00007859  00000+0  34864-3 0  9993
2 41170  14.9887 259.8306 0011516  39.5528 320.5633 15.17119561334279
VELOX-II                
1 41171U 15077F   21364.11786320  .00005532  00000+0  26308-3 0  9994
2 41171  14.9926 316.9961 0008482 269.7786  90.1563 15.13426173333904
CHUBUSAT-2              
1 41338U 16012B   21364.49256288  .00001343  00000+0  96572-4 0  9992
2 41338  31.0042  19.1347 0013570 276.8410  83.0681 15.00764642322075
CHUBUSAT-3              
1 41339U 16012C   21364.69685458  .00001403  00000+0  10087-3 0  9993
2 41339  31.0126  14.8760 0013304 286.6147  73.3014 15.00894319322102
HORYU-4                 
1 41340U 16012D   21364.39108409  .00002441  00000+0  17380-3 0  9994
2 41340  31.0064 357.8400 0013581 318.9419  41.0195 15.02285165322279
